COMMENT,ORIGINATOR,NORAD_CAT_ID,OBJECT_NAME,OBJECT_TYPE,CLASSIFICATION_TYPE,INTLDES,EPOCH,EPOCH_MICROSECONDS,MEAN_MOTION,ECCENTRICITY,INCLINATION,RA_OF_ASC_NODE,ARG_OF_PERICENTER,MEAN_ANOMALY,EPHEMERIS_TYPE,ELEMENT_SET_NO,REV_AT_EPOCH,BSTAR,MEAN_MOTION_DOT,MEAN_MOTION_DDOT,FILE,TLE_LINE0,TLE_LINE1,TLE_LINE2,OBJECT_ID,OBJECT_NUMBER,SEMIMAJOR_AXIS,PERIOD,APOGEE,PERIGEE,DECAYED,date
GENERATED VIA SPACETRACK.ORG API,18 SPCS,48895,SPACEBEE-108,PAYLOAD,U,21059S,2023/2/11 22:14,295584,15.22527852,0.0008434,97.5788,177.8386,350.6028,9.5049,0,999,9027,0.0016603,0.00038633,0,3787492,0 SPACEBEE-108,1 48895U 21059S   23042.92639231  .00038633  00000-0  16603-2 0  9998,2 48895  97.5788 177.8386 0008434 350.6028   9.5049 15.22527852 90277,2021-059S,48895,6876.356,94.58,504.02,492.421,0,2023/4/3
GENERATED VIA SPACETRACK.ORG API,18 SPCS,48895,SPACEBEE-108,PAYLOAD,U,21059S,2023/2/11 22:14,295584,15.22527852,0.0008434,97.5788,177.8386,350.6028,9.5049,0,999,9027,0.0016603,0.00038633,0,3787692,0 SPACEBEE-108,1 48895U 21059S   23042.92639231  .00038633  00000-0  16603-2 0  9998,2 48895  97.5788 177.8386 0008434 350.6028   9.5049 15.22527852 90277,2021-059S,48895,6876.356,94.58,504.02,492.421,0,2023/4/4
GENERATED VIA SPACETRACK.ORG API,18 SPCS,48895,SPACEBEE-108,PAYLOAD,U,21059S,2023/2/13 10:30,888128,15.22648449,0.0008488,97.5791,179.3641,346.072,14.0281,0,999,9050,0.0016083,0.00037549,0,3788844,0 SPACEBEE-108,1 48895U 21059S   23044.43793852  .00037549  00000-0  16083-2 0  9993,2 48895  97.5791 179.3641 0008488 346.0720  14.0281 15.22648449 90500,2021-059S,48895,6875.993,94.572,503.694,492.021,0,2023/4/5
GENERATED VIA SPACETRACK.ORG API,18 SPCS,48895,SPACEBEE-108,PAYLOAD,U,21059S,2023/2/13 10:30,888128,15.22648449,0.0008488,97.5791,179.3641,346.072,14.0281,0,999,9050,0.0016083,0.00037549,0,3789366,0 SPACEBEE-108,1 48895U 21059S   23044.43793852  .00037549  00000-0  16083-2 0  9993,2 48895  97.5791 179.3641 0008488 346.0720  14.0281 15.22648449 90500,2021-059S,48895,6875.993,94.572,503.694,492.021,0,2023/4/6
GENERATED VIA SPACETRACK.ORG API,18 SPCS,48895,SPACEBEE-108,PAYLOAD,U,21059S,2023/2/14 14:53,932160,15.22734242,0.0008435,97.5788,180.5576,341.9307,18.1628,0,999,9068,0.0016107,0.00037701,0,3791349,0 SPACEBEE-108,1 48895U 21059S   23045.62080940  .00037701  00000-0  16107-2 0  9999,2 48895  97.5788 180.5576 0008435 341.9307  18.1628 15.22734242 90680,2021-059S,48895,6875.735,94.567,503.399,491.8,0,2023/4/7
GENERATED VIA SPACETRACK.ORG API,18 SPCS,48895,SPACEBEE-108,PAYLOAD,U,21059S,2023/2/14 14:53,932160,15.22734242,0.0008435,97.5788,180.5576,341.9307,18.1628,0,999,9068,0.0016107,0.00037701,0,3791561,0 SPACEBEE-108,1 48895U 21059S   23045.62080940  .00037701  00000-0  16107-2 0  9999,2 48895  97.5788 180.5576 0008435 341.9307  18.1628 15.22734242 90680,2021-059S,48895,6875.735,94.567,503.399,491.8,0,2023/4/8
GENERATED VIA SPACETRACK.ORG API,18 SPCS,48895,SPACEBEE-108,PAYLOAD,U,21059S,2023/2/15 14:33,195136,15.22813307,0.0008454,97.5785,181.5522,337.9883,22.0989,0,999,9083,0.0019605,0.00046063,0,3793706,0 SPACEBEE-108,1 48895U 21059S   23046.60648374  .00046063  00000-0  19605-2 0  9996,2 48895  97.5785 181.5522 0008454 337.9883  22.0989 15.22813307 90835,2021-059S,48895,6875.497,94.562,503.174,491.549,0,2023/4/9
GENERATED VIA SPACETRACK.ORG API,18 SPCS,48895,SPACEBEE-108,PAYLOAD,U,21059S,2023/2/15 20:51,345632,15.2283578,0.0008461,97.5785,181.8174,336.8837,23.2017,0,999,9087,0.0019196,0.00045125,0,3795153,0 SPACEBEE-108,1 48895U 21059S   23046.86932113  .00045125  00000-0  19196-2 0  9994,2 48895  97.5785 181.8174 0008461 336.8837  23.2017 15.22835780 90874,2021-059S,48895,6875.429,94.56,503.111,491.477,0,2023/4/10
GENERATED VIA SPACETRACK.ORG API,18 SPCS,48895,SPACEBEE-108,PAYLOAD,U,21059S,2023/2/15 22:26,582496,15.22841108,0.0008463,97.5784,181.8837,336.6264,23.4586,0,999,9088,0.0019174,0.0004508,0,3795543,0 SPACEBEE-108,1 48895U 21059S   23046.93502989  .00045080  00000-0  19174-2 0  9992,2 48895  97.5784 181.8837 0008463 336.6264  23.4586 15.22841108 90888,2021-059S,48895,6875.413,94.56,503.096,491.459,0,2023/4/11
GENERATED VIA SPACETRACK.ORG API,18 SPCS,48895,SPACEBEE-108,PAYLOAD,U,21059S,2023/2/16 14:12,692288,15.22900275,0.0008489,97.5786,182.5469,334.0018,26.079,0,999,9098,0.0019369,0.00045622,0,3798293,0 SPACEBEE-108,1 48895U 21059S   23047.59210292  .00045622  00000-0  19369-2 0  9996,2 48895  97.5786 182.5469 0008489 334.0018  26.0790 15.22900275 90984,2021-059S,48895,6875.235,94.556,502.936,491.263,0,2023/4/12
GENERATED VIA SPACETRACK.ORG API,18 SPCS,48895,SPACEBEE-108,PAYLOAD,U,21059S,2023/2/16 22:05,415584,15.22928698,0.0008493,97.5787,182.8785,332.8563,27.2228,0,999,9103,0.0018283,0.00043082,0,3799178,0 SPACEBEE-108,1 48895U 21059S   23047.92062981  .00043082  00000-0  18283-2 0  9995,2 48895  97.5787 182.8785 0008493 332.8563  27.2228 15.22928698 91030,2021-059S,48895,6875.149,94.555,502.853,491.175,0,2023/4/13
GENERATED VIA SPACETRACK.ORG API,18 SPCS,48895,SPACEBEE-108,PAYLOAD,U,21059S,2023/2/17 7:33,520384,15.22953044,0.0008528,97.5788,183.2766,331.7399,28.3373,0,999,9109,0.001425,0.00033544,0,3801235,0 SPACEBEE-108,1 48895U 21059S   23048.31485556  .00033544  00000-0  14250-2 0  9998,2 48895  97.5788 183.2766 0008528 331.7399  28.3373 15.22953044 91091,2021-059S,48895,6875.076,94.553,502.804,491.078,0,2023/4/14
GENERATED VIA SPACETRACK.ORG API,18 SPCS,48895,SPACEBEE-108,PAYLOAD,U,21059S,2023/2/17 7:33,520384,15.22953044,0.0008528,97.5788,183.2766,331.7399,28.3373,0,999,9109,0.001425,0.00033544,0,3802730,0 SPACEBEE-108,1 48895U 21059S   23048.31485556  .00033544  00000-0  14250-2 0  9998,2 48895  97.5788 183.2766 0008528 331.7399  28.3373 15.22953044 91091,2021-059S,48895,6875.076,94.553,502.804,491.078,0,2023/4/15
GENERATED VIA SPACETRACK.ORG API,18 SPCS,48895,SPACEBEE-108,PAYLOAD,U,21059S,2023/2/17 20:10,384736,15.22986918,0.0008501,97.579,183.8071,330.2104,29.8647,0,999,9117,0.0012183,0.00028677,0,3804075,0 SPACEBEE-108,1 48895U 21059S   23048.84047899  .00028677  00000-0  12183-2 0  9994,2 48895  97.5790 183.8071 0008501 330.2104  29.8647 15.22986918 91173,2021-059S,48895,6874.974,94.551,502.683,490.995,0,2023/4/16
GENERATED VIA SPACETRACK.ORG API,18 SPCS,48895,SPACEBEE-108,PAYLOAD,U,21059S,2023/2/18 15:05,514176,15.23030741,0.0008407,97.5795,184.6027,327.7247,32.3474,0,999,9129,0.00115,0.00027094,0,3807124,0 SPACEBEE-108,1 48895U 21059S   23049.62889484  .00027094  00000-0  11500-2 0  9999,2 48895  97.5795 184.6027 0008407 327.7247  32.3474 15.23030741 91297,2021-059S,48895,6874.842,94.548,502.487,490.927,0,2023/4/17
GENERATED VIA SPACETRACK.ORG API,18 SPCS,48895,SPACEBEE-108,PAYLOAD,U,21059S,2023/2/18 15:05,514176,15.23030741,0.0008407,97.5795,184.6027,327.7247,32.3474,0,999,9129,0.00115,0.00027094,0,3807310,0 SPACEBEE-108,1 48895U 21059S   23049.62889484  .00027094  00000-0  11500-2 0  9999,2 48895  97.5795 184.6027 0008407 327.7247  32.3474 15.23030741 91297,2021-059S,48895,6874.842,94.548,502.487,490.927,0,2023/4/18
GENERATED VIA SPACETRACK.ORG API,18 SPCS,48895,SPACEBEE-108,PAYLOAD,U,21059S,2023/2/19 14:44,787104,15.23081257,0.0008401,97.5797,185.5976,323.6106,36.4558,0,999,9144,0.0010611,0.00025024,0,3811610,0 SPACEBEE-108,1 48895U 21059S   23050.61438411  .00025024  00000-0  10611-2 0  9993,2 48895  97.5797 185.5976 0008401 323.6106  36.4558 15.23081257 91448,2021-059S,48895,6874.69,94.545,502.331,490.78,0,2023/4/19
GENERATED VIA SPACETRACK.ORG API,18 SPCS,48895,SPACEBEE-108,PAYLOAD,U,21059S,2023/2/19 22:37,242752,15.2309894,0.0008393,97.5799,185.9293,322.2841,37.7806,0,999,9149,0.0010615,0.00025047,0,3813614,0 SPACEBEE-108,1 48895U 21059S   23050.94287318  .00025047  00000-0  10615-2 0  9996,2 48895  97.5799 185.9293 0008393 322.2841  37.7806 15.23098940 91499,2021-059S,48895,6874.637,94.544,502.272,490.732,0,2023/4/20
GENERATED VIA SPACETRACK.ORG API,18 SPCS,48895,SPACEBEE-108,PAYLOAD,U,21059S,2023/2/20 8:05,567552,15.23120149,0.0008473,97.58,186.3274,320.9097,39.1526,0,999,9155,0.0011162,0.00026363,0,3815761,0 SPACEBEE-108,1 48895U 21059S   23051.33705518  .00026363  00000-0  11162-2 0  9997,2 48895  97.5800 186.3274 0008473 320.9097  39.1526 15.23120149 91552,2021-059S,48895,6874.573,94.543,502.263,490.613,0,2023/4/21
GENERATED VIA SPACETRACK.ORG API,18 SPCS,48895,SPACEBEE-108,PAYLOAD,U,21059S,2023/2/21 7:44,822368,15.23175418,0.0008448,97.5799,187.3221,317.4189,42.6391,0,999,9170,0.0012244,0.00028983,0,3818721,0 SPACEBEE-108,1 48895U 21059S   23052.32248637  .00028983  00000-0  12244-2 0  9993,2 48895  97.5799 187.3221 0008448 317.4189  42.6391 15.23175418 91702,2021-059S,48895,6874.407,94.539,502.079,490.464,0,2023/4/22
GENERATED VIA SPACETRACK.ORG API,18 SPCS,48895,SPACEBEE-108,PAYLOAD,U,21059S,2023/2/21 14:02,572864,15.23193268,0.0008423,97.5799,187.5872,316.4796,43.5775,0,999,9174,0.001309,0.00031015,0,3819803,0 SPACEBEE-108,1 48895U 21059S   23052.58526126  .00031015  00000-0  13090-2 0  9993,2 48895  97.5799 187.5872 0008423 316.4796  43.5775 15.23193268 91745,2021-059S,48895,6874.353,94.538,502.008,490.428,0,2023/4/23
GENERATED VIA SPACETRACK.ORG API,18 SPCS,48895,SPACEBEE-108,PAYLOAD,U,21059S,2023/2/21 21:55,942816,15.23214136,0.0008374,97.5802,187.9189,315.4334,44.6228,0,999,9179,0.0012932,0.00030657,0,3821329,0 SPACEBEE-108,1 48895U 21059S   23052.91372619  .00030657  00000-0  12932-2 0  9991,2 48895  97.5802 187.9189 0008374 315.4334  44.6228 15.23214136 91795,2021-059S,48895,6874.29,94.537,501.912,490.399,0,2023/4/24
GENERATED VIA SPACETRACK.ORG API,18 SPCS,48895,SPACEBEE-108,PAYLOAD,U,21059S,2023/2/22 8:57,437632,15.23239152,0.0008408,97.5807,188.3837,314.2021,45.8524,0,999,9186,0.0011186,0.00026513,0,3822907,0 SPACEBEE-108,1 48895U 21059S   23053.37356988  .00026513  00000-0  11186-2 0  9999,2 48895  97.5807 188.3837 0008408 314.2021  45.8524 15.23239152 91868,2021-059S,48895,6874.215,94.535,501.86,490.3,0,2023/4/25
